RADUGA 32               
1 23448U 94087A   09121.32979639 -.00000102  00000-0  10000-3 0  1383
2 23448  10.1276  52.9136 0004194 138.4083 221.5449  1.00284170 70211
RADUGA-1 4              
1 25642U 99010A   09121.26840434 -.00000365  00000-0  10000-3 0  2466
2 25642   8.7594  69.7389 0002541 152.2565 207.6896  1.00273357 37257
RADUGA-1 5              
1 26477U 00049A   09121.90737949  .00000117  00000-0  10000-3 0  5472
2 26477   6.3930  67.7064 0001883 291.9691 233.0944  1.00298012 31761
RADUGA-1 7              
1 28194U 04010A   09122.81169789 -.00000197  00000-0  10000-3 0  1952
2 28194   3.7124  85.9164 0001419 342.4629 170.1243  1.00272031 18688
RADUGA-1M 1             
1 32373U 07058A   09122.81143951 -.00000051  00000-0  10000-3 0  4181
2 32373   0.0230 268.2448 0001701 191.9119 122.8357  1.00270402  6010
